NORAD_CAT_ID,OBJECT_NAME,OBJECT_TYPE,EPOCH,MEAN_MOTION,ECCENTRICITY,INCLINATION,RA_OF_ASC_NODE,ARG_OF_PERICENTER,MEAN_ANOMALY,BSTAR,MEAN_MOTION_DOT,MEAN_MOTION_DDOT,TLE_LINE0,TLE_LINE1,TLE_LINE2,SEMIMAJOR_AXIS,PERIOD,APOGEE,PERIGEE,DECAYED
51126.0,STARLINK-3386,PAYLOAD,2023-02-08 22:25:27,15.08829,9.86e-05,53.2162,308.3489,90.6563,269.4542,0.00015261,2.141e-05,0.0,0 STARLINK-3386,1 51126U 22005Y   23039.93435090  .00002141  00000-0  15261-3 0  9990,2 51126  53.2162 308.3489 0000986  90.6563 269.4542 15.08829000 58944,6917.914,95.438,540.461,539.097,0.0
51126.0,STARLINK-3386,PAYLOAD,2023-02-09 03:11:37,15.08848649,0.0001156,53.2152,307.4565,85.3045,274.808,0.0012848,0.00020224,0.0,0 STARLINK-3386,1 51126U 22005Y   23040.13307141  .00020224  00000-0  12848-2 0  9998,2 51126  53.2152 307.4565 0001156  85.3045 274.8080 15.08848649 60089,6917.854,95.437,540.519,538.919,0.0
51126.0,STARLINK-3386,PAYLOAD,2023-02-10 03:02:24,15.088668,0.0001111,53.2142,302.9954,101.4632,258.6485,0.002216,0.00035182,0.0,0 STARLINK-3386,1 51126U 22005Y   23041.12667176  .00035182  00000-0  22160-2 0  9992,2 51126  53.2142 302.9954 0001111 101.4632 258.6485 15.08866800 59124,6917.798,95.436,540.432,538.895,0.0
51126.0,STARLINK-3386,PAYLOAD,2023-02-10 10:59:20,15.08850983,0.0001682,53.2165,301.5087,85.4597,274.6587,0.0014166,0.00022336,0.0,0 STARLINK-3386,1 51126U 22005Y   23041.45787508  .00022336  00000-0  14166-2 0  9994,2 51126  53.2165 301.5087 0001682  85.4597 274.6587 15.08850983 60280,6917.847,95.437,540.875,538.548,0.0
51126.0,STARLINK-3386,PAYLOAD,2023-02-10 23:42:25,15.08860869,0.0001869,53.2162,299.1291,87.0726,273.048,0.0014763,0.00023299,0.0,0 STARLINK-3386,1 51126U 22005Y   23041.98779150  .00023299  00000-0  14763-2 0  9998,2 51126  53.2162 299.1291 0001869  87.0726 273.0480 15.08860869 60363,6917.817,95.436,540.975,538.389,0.0
51126.0,STARLINK-3386,PAYLOAD,2023-02-11 17:11:40,15.08848066,0.0001183,53.2143,295.8592,72.8985,287.2136,0.0012015,0.0001889,0.0,0 STARLINK-3386,1 51126U 22005Y   23042.71643598  .00018890  00000-0  12015-2 0  9995,2 51126  53.2143 295.8592 0001183  72.8985 287.2136 15.08848066 60479,6917.856,95.437,540.539,538.902,0.0
51126.0,STARLINK-3386,PAYLOAD,2023-02-12 09:05:31,15.08844269,0.0001641,53.2148,292.8833,80.7912,279.3266,0.00049395,7.583e-05,0.0,0 STARLINK-3386,1 51126U 22005Y   23043.37883630  .00007583  00000-0  49395-3 0  9990,2 51126  53.2148 292.8833 0001641  80.7912 279.3266 15.08844269 60574,6917.867,95.437,540.868,538.597,0.0
51126.0,STARLINK-3386,PAYLOAD,2023-02-13 02:34:46,15.08833214,0.0002009,53.2152,289.614,79.4691,280.6528,0.00034502,5.206e-05,0.0,0 STARLINK-3386,1 51126U 22005Y   23044.10748383  .00005206  00000-0  34502-3 0  9991,2 51126  53.2152 289.6140 0002009  79.4691 280.6528 15.08833214 60688,6917.901,95.438,541.156,538.376,0.0
51126.0,STARLINK-3386,PAYLOAD,2023-02-13 08:56:19,15.08828575,0.0001975,53.2138,288.4236,77.8761,282.2452,0.00016696,2.369e-05,0.0,0 STARLINK-3386,1 51126U 22005Y   23044.37244670  .00002369  00000-0  16696-3 0  9991,2 51126  53.2138 288.4236 0001975  77.8761 282.2452 15.08828575 59615,6917.915,95.438,541.147,538.414,0.0
51126.0,STARLINK-3386,PAYLOAD,2023-02-14 02:25:33,15.08848225,0.0001533,53.2148,285.1517,78.1408,281.9756,0.00033766,5.091e-05,0.0,0 STARLINK-3386,1 51126U 22005Y   23045.10107980  .00005091  00000-0  33766-3 0  9997,2 51126  53.2148 285.1517 0001533  78.1408 281.9756 15.08848225 60837,6917.855,95.437,540.781,538.66,0.0
51126.0,STARLINK-3386,PAYLOAD,2023-02-14 08:47:06,15.08844647,0.0001481,53.2149,283.9622,78.4576,281.6582,0.00032312,4.859e-05,0.0,0 STARLINK-3386,1 51126U 22005Y   23045.36604298  .00004859  00000-0  32312-3 0  9996,2 51126  53.2149 283.9622 0001481  78.4576 281.6582 15.08844647 60874,6917.866,95.437,540.756,538.707,0.0
51126.0,STARLINK-3386,PAYLOAD,2023-02-15 08:37:52,15.08846451,9.91e-05,53.2145,279.503,90.6316,269.4789,0.00018268,2.621e-05,0.0,0 STARLINK-3386,1 51126U 22005Y   23046.35963938  .00002621  00000-0  18268-3 0  9994,2 51126  53.2145 279.5030 0000991  90.6316 269.4789 15.08846451 61023,6917.861,95.437,540.411,539.04,0.0
51126.0,STARLINK-3386,PAYLOAD,2023-02-15 21:20:57,15.08857569,9.61e-05,53.2145,277.1268,93.0979,267.0123,-0.00018059,-3.162e-05,0.0,0 STARLINK-3386,1 51126U 22005Y   23046.88955340 -.00003162  00000-0 -18059-3 0  9991,2 51126  53.2145 277.1268 0000961  93.0979 267.0123 15.08857569 59990,6917.827,95.436,540.356,539.027,0.0
51126.0,STARLINK-3386,PAYLOAD,2023-02-16 14:50:12,15.08838106,0.0001289,53.2135,273.8542,76.1096,284.004,6.3968e-05,7.3e-06,0.0,0 STARLINK-3386,1 51126U 22005Y   23047.61820268  .00000730  00000-0  63968-4 0  9999,2 51126  53.2135 273.8542 0001289  76.1096 284.0040 15.08838106 61214,6917.886,95.438,540.643,538.859,0.0
51126.0,STARLINK-3386,PAYLOAD,2023-02-16 21:11:45,15.08838597,8.77e-05,53.2134,272.6652,72.9964,287.1124,6.0039e-05,6.68e-06,0.0,0 STARLINK-3386,1 51126U 22005Y   23047.88316146  .00000668  00000-0  60039-4 0  9999,2 51126  53.2134 272.6652 0000877  72.9964 287.1124 15.08838597 60144,6917.885,95.438,540.356,539.143,0.0
51126.0,STARLINK-3386,PAYLOAD,2023-02-17 14:41:10,15.08593179,8.34e-05,53.218,269.3934,63.4299,296.6778,-0.0040844,-0.00064275,0.0,0 STARLINK-3386,1 51126U 22005Y   23048.61192443 -.00064275  00000-0 -40844-2 0  9999,2 51126  53.2180 269.3934 0000834  63.4299 296.6778 15.08593179 61369,6918.635,95.453,541.077,539.923,0.0
51126.0,STARLINK-3386,PAYLOAD,2023-02-17 21:02:42,15.0873623,0.0002966,53.2154,268.2025,353.9319,6.1636,-0.00023513,-4.018e-05,0.0,0 STARLINK-3386,1 51126U 22005Y   23048.87688298 -.00004018  00000-0 -23513-3 0  9999,2 51126  53.2154 268.2025 0002966 353.9319   6.1636 15.08736230 60292,6918.198,95.444,542.115,538.011,0.0
51126.0,STARLINK-3386,PAYLOAD,2023-02-18 01:49:10,15.08319659,0.0001199,53.2142,267.3112,80.6842,279.4286,-0.0075023,-0.00116104,0.0,0 STARLINK-3386,1 51126U 22005Y   23049.07581613 -.00116104  00000-0 -75023-2 0  9997,2 51126  53.2142 267.3112 0001199  80.6842 279.4286 15.08319659 61433,6919.471,95.47,542.166,540.507,0.0
51126.0,STARLINK-3386,PAYLOAD,2023-02-18 06:34:47,15.09065368,0.0001028,53.2139,266.4149,315.1364,44.9545,0.0052977,0.00085577,0.0,0 STARLINK-3386,1 51126U 22005Y   23049.27416065  .00085577  00000-0  52977-2 0  9997,2 51126  53.2139 266.4149 0001028 315.1364  44.9545 15.09065368 61467,6917.192,95.423,539.768,538.346,0.0
51126.0,STARLINK-3386,PAYLOAD,2023-02-18 14:31:48,15.08875459,0.0001601,53.2138,264.9276,32.5616,327.5475,0.0010835,0.00017015,0.0,0 STARLINK-3386,1 51126U 22005Y   23049.60542264  .00017015  00000-0  10835-2 0  9994,2 51126  53.2138 264.9276 0001601  32.5616 327.5475 15.08875459 60401,6917.772,95.435,540.745,538.529,0.0
51126.0,STARLINK-3386,PAYLOAD,2023-02-19 03:14:57,15.08858537,0.0001611,53.2135,262.5497,55.01,305.1043,0.0010208,0.00016004,0.0,0 STARLINK-3386,1 51126U 22005Y   23050.13539099  .00016004  00000-0  10208-2 0  9997,2 51126  53.2135 262.5497 0001611  55.0100 305.1043 15.08858537 61598,6917.824,95.436,540.803,538.574,0.0
51126.0,STARLINK-3386,PAYLOAD,2023-02-19 14:22:38,15.08855482,0.0001539,53.2142,260.4676,54.9435,305.1701,0.0010415,0.00016333,0.0,0 STARLINK-3386,1 51126U 22005Y   23050.59906192  .00016333  00000-0  10415-2 0  9994,2 51126  53.2142 260.4676 0001539  54.9435 305.1701 15.08855482 60552,6917.833,95.437,540.763,538.633,0.0
51126.0,STARLINK-3386,PAYLOAD,2023-02-19 22:19:36,15.08809823,0.0001334,53.2146,258.9702,92.1669,267.9476,0.0020914,0.00033126,0.0,0 STARLINK-3386,1 51126U 22005Y   23050.93028091  .00033126  00000-0  20914-2 0  9999,2 51126  53.2146 258.9702 0001334  92.1669 267.9476 15.08809823 61715,6917.973,95.439,540.76,538.915,0.0
51126.0,STARLINK-3386,PAYLOAD,2023-02-20 06:17:47,15.08584673,0.0001461,53.2133,257.5004,85.6681,274.4478,0.0052977,0.00084444,0.0,0 STARLINK-3386,1 51126U 22005Y   23051.26235370  .00084444  00000-0  52977-2 0  9999,2 51126  53.2133 257.5004 0001461  85.6681 274.4478 15.08584673 61766,6918.661,95.454,541.537,539.515,0.0
51126.0,STARLINK-3386,PAYLOAD,2023-02-20 09:28:35,15.08595,0.000154,53.2131,256.906,82.9533,277.1634,0.0054035,0.00086182,0.0,0 STARLINK-3386,1 51126U 22005Y   23051.39485950  .00086182  00000-0  54035-2 0  9992,2 51126  53.2131 256.9060 0001540  82.9533 277.1634 15.08595000 61785,6918.629,95.453,541.56,539.429,0.0
51126.0,STARLINK-3386,PAYLOAD,2023-02-20 20:36:18,15.08706645,0.000136,53.213,254.8244,95.9512,264.1635,0.0033828,0.00053763,0.0,0 STARLINK-3386,1 51126U 22005Y   23051.85854702  .00053763  00000-0  33828-2 0  9994,2 51126  53.2130 254.8244 0001360  95.9512 264.1635 15.08706645 61850,6918.288,95.446,541.094,539.212,0.0
51126.0,STARLINK-3386,PAYLOAD,2023-02-20 23:47:04,15.08723492,0.0001356,53.2129,254.2296,93.1565,266.9582,0.0033012,0.00052474,0.0,0 STARLINK-3386,1 51126U 22005Y   23051.99102987  .00052474  00000-0  33012-2 0  9993,2 51126  53.2129 254.2296 0001356  93.1565 266.9582 15.08723492 61874,6918.237,95.445,541.04,539.163,0.0
51126.0,STARLINK-3386,PAYLOAD,2023-02-21 14:05:32,15.08795856,0.0001472,53.2129,251.5527,89.6954,270.4207,0.0014261,0.00022454,0.0,0 STARLINK-3386,1 51126U 22005Y   23052.58718657  .00022454  00000-0  14261-2 0  9996,2 51126  53.2129 251.5527 0001472  89.6954 270.4207 15.08795856 61969,6918.015,95.44,540.899,538.862,0.0
51126.0,STARLINK-3386,PAYLOAD,2023-02-21 18:51:42,15.08809097,0.0001613,53.2126,250.6595,94.8424,265.2752,0.0012549,0.00019723,0.0,0 STARLINK-3386,1 51126U 22005Y   23052.78590279  .00019723  00000-0  12549-2 0  9998,2 51126  53.2126 250.6595 0001613  94.8424 265.2752 15.08809097 61991,6917.975,95.44,540.956,538.724,0.0
51126.0,STARLINK-3386,PAYLOAD,2023-02-21 20:27:05,15.08814352,0.0001529,53.2126,250.3623,90.8538,269.263,0.0011943,0.00018757,0.0,0 STARLINK-3386,1 51126U 22005Y   23052.85214159  .00018757  00000-0  11943-2 0  9999,2 51126  53.2126 250.3623 0001529  90.8538 269.2630 15.08814352 60895,6917.959,95.439,540.882,538.766,0.0
